[{"CCSDS_OMM_VERS":"2.0","COMMENT":"GENERATED VIA SPACE-TRACK.ORG API","CREATION_DATE":"2020-07-17T17:30:41","ORIGINATOR":"18 SPCS","OBJECT_NAME":"ONEWEB-0027","OBJECT_ID":"2020-020J","CENTER_NAME":"EARTH","REF_FRAME":"TEME","TIME_SYSTEM":"UTC","MEAN_ELEMENT_THEORY":"SGP4","EPOCH":"2020-07-17T14:00:01.000224","MEAN_MOTION":"14.89832418","ECCENTRICITY":"0.00245400","INCLINATION":"87.5644","RA_OF_ASC_NODE":"100.6121","ARG_OF_PERICENTER":"227.8593","MEAN_ANOMALY":"106.8961","EPHEMERIS_TYPE":"0","CLASSIFICATION_TYPE":"U","NORAD_CAT_ID":"45432","ELEMENT_SET_NO":"999","REV_AT_EPOCH":"176","BSTAR":"0.00604250000000","MEAN_MOTION_DOT":"0.00058768","MEAN_MOTION_DDOT":"0.0000000000000","SEMIMAJOR_AXIS":"6976.595","PERIOD":"96.655","APOAPSIS":"615.581","PERIAPSIS":"581.340","OBJECT_TYPE":"PAYLOAD","RCS_SIZE":"MEDIUM","COUNTRY_CODE":"UK","LAUNCH_DATE":"2020-03-21","SITE":"TTMTR","DECAY_DATE":null,"FILE":"2786723","GP_ID":"157712906","TLE_LINE0":"0 ONEWEB-0027","TLE_LINE1":"1 45432U 20020J   20199.58334491 +.00058768 +00000-0 +60425-2 0  9993","TLE_LINE2":"2 45432 087.5644 100.6121 0024540 227.8593 106.8961 14.89832418001769"},{"CCSDS_OMM_VERS":"2.0","COMMENT":"GENERATED VIA SPACE-TRACK.ORG API","CREATION_DATE":"2020-07-18T01:36:18","ORIGINATOR":"18 SPCS","OBJECT_NAME":"ONEWEB-0027","OBJECT_ID":"2020-020J","CENTER_NAME":"EARTH","REF_FRAME":"TEME","TIME_SYSTEM":"UTC","MEAN_ELEMENT_THEORY":"SGP4","EPOCH":"2020-07-17T22:00:00.999936","MEAN_MOTION":"14.89883207","ECCENTRICITY":"0.00245860","INCLINATION":"87.5644","RA_OF_ASC_NODE":"100.5081","ARG_OF_PERICENTER":"226.7791","MEAN_ANOMALY":"94.5973","EPHEMERIS_TYPE":"0","CLASSIFICATION_TYPE":"U","NORAD_CAT_ID":"45432","ELEMENT_SET_NO":"999","REV_AT_EPOCH":"176","BSTAR":"-0.00462120000000","MEAN_MOTION_DOT":"-0.00044308","MEAN_MOTION_DDOT":"0.0000000000000","SEMIMAJOR_AXIS":"6976.437","PERIOD":"96.651","APOAPSIS":"615.454","PERIAPSIS":"581.149","OBJECT_TYPE":"PAYLOAD","RCS_SIZE":"MEDIUM","COUNTRY_CODE":"UK","LAUNCH_DATE":"2020-03-21","SITE":"TTMTR","DECAY_DATE":null,"FILE":"2786900","GP_ID":"157738330","TLE_LINE0":"0 ONEWEB-0027","TLE_LINE1":"1 45432U 20020J   20199.91667824 -.00044308 +00000-0 -46212-2 0  9994","TLE_LINE2":"2 45432 087.5644 100.5081 0024586 226.7791 094.5973 14.89883207001769"},{"CCSDS_OMM_VERS":"2.0","COMMENT":"GENERATED VIA SPACE-TRACK.ORG API","CREATION_DATE":"2020-07-18T14:26:10","ORIGINATOR":"18 SPCS","OBJECT_NAME":"ONEWEB-0027","OBJECT_ID":"2020-020J","CENTER_NAME":"EARTH","REF_FRAME":"TEME","TIME_SYSTEM":"UTC","MEAN_ELEMENT_THEORY":"SGP4","EPOCH":"2020-07-18T12:00:00.999648","MEAN_MOTION":"14.89852486","ECCENTRICITY":"0.00245860","INCLINATION":"87.5646","RA_OF_ASC_NODE":"100.3290","ARG_OF_PERICENTER":"224.2783","MEAN_ANOMALY":"343.7209","EPHEMERIS_TYPE":"0","CLASSIFICATION_TYPE":"U","NORAD_CAT_ID":"45432","ELEMENT_SET_NO":"999","REV_AT_EPOCH":"1787","BSTAR":"0.00137280000000","MEAN_MOTION_DOT":"0.00013295","MEAN_MOTION_DDOT":"0.0000000000000","SEMIMAJOR_AXIS":"6976.533","PERIOD":"96.653","APOAPSIS":"615.550","PERIAPSIS":"581.245","OBJECT_TYPE":"PAYLOAD","RCS_SIZE":"MEDIUM","COUNTRY_CODE":"UK","LAUNCH_DATE":"2020-03-21","SITE":"TTMTR","DECAY_DATE":null,"FILE":"2787187","GP_ID":"157744592","TLE_LINE0":"0 ONEWEB-0027","TLE_LINE1":"1 45432U 20020J   20200.50001157  .00013295  00000-0  13728-2 0  9998","TLE_LINE2":"2 45432  87.5646 100.3290 0024586 224.2783 343.7209 14.89852486 17870"},{"CCSDS_OMM_VERS":"2.0","COMMENT":"GENERATED VIA SPACE-TRACK.ORG API","CREATION_DATE":"2020-07-18T18:52:27","ORIGINATOR":"18 SPCS","OBJECT_NAME":"ONEWEB-0027","OBJECT_ID":"2020-020J","CENTER_NAME":"EARTH","REF_FRAME":"TEME","TIME_SYSTEM":"UTC","MEAN_ELEMENT_THEORY":"SGP4","EPOCH":"2020-07-18T14:00:01.000224","MEAN_MOTION":"14.89832001","ECCENTRICITY":"0.00246300","INCLINATION":"87.5646","RA_OF_ASC_NODE":"100.3033","ARG_OF_PERICENTER":"223.9635","MEAN_ANOMALY":"70.6985","EPHEMERIS_TYPE":"0","CLASSIFICATION_TYPE":"U","NORAD_CAT_ID":"45432","ELEMENT_SET_NO":"999","REV_AT_EPOCH":"175","BSTAR":"0.00651040000000","MEAN_MOTION_DOT":"0.00063359","MEAN_MOTION_DDOT":"0.0000000000000","SEMIMAJOR_AXIS":"6976.597","PERIOD":"96.655","APOAPSIS":"615.645","PERIAPSIS":"581.278","OBJECT_TYPE":"PAYLOAD","RCS_SIZE":"MEDIUM","COUNTRY_CODE":"UK","LAUNCH_DATE":"2020-03-21","SITE":"TTMTR","DECAY_DATE":null,"FILE":"2787290","GP_ID":"157767319","TLE_LINE0":"0 ONEWEB-0027","TLE_LINE1":"1 45432U 20020J   20200.58334491 +.00063359 +00000-0 +65104-2 0  9997","TLE_LINE2":"2 45432 087.5646 100.3033 0024630 223.9635 070.6985 14.89832001001755"},{"CCSDS_OMM_VERS":"2.0","COMMENT":"GENERATED VIA SPACE-TRACK.ORG API","CREATION_DATE":"2020-07-19T02:20:26","ORIGINATOR":"18 SPCS","OBJECT_NAME":"ONEWEB-0027","OBJECT_ID":"2020-020J","CENTER_NAME":"EARTH","REF_FRAME":"TEME","TIME_SYSTEM":"UTC","MEAN_ELEMENT_THEORY":"SGP4","EPOCH":"2020-07-18T22:00:01.999584","MEAN_MOTION":"14.89884993","ECCENTRICITY":"0.00247160","INCLINATION":"87.5647","RA_OF_ASC_NODE":"100.1993","ARG_OF_PERICENTER":"222.8991","MEAN_ANOMALY":"58.4475","EPHEMERIS_TYPE":"0","CLASSIFICATION_TYPE":"U","NORAD_CAT_ID":"45432","ELEMENT_SET_NO":"999","REV_AT_EPOCH":"174","BSTAR":"-0.00464100000000","MEAN_MOTION_DOT":"-0.00044501","MEAN_MOTION_DDOT":"0.0000000000000","SEMIMAJOR_AXIS":"6976.431","PERIOD":"96.651","APOAPSIS":"615.539","PERIAPSIS":"581.053","OBJECT_TYPE":"PAYLOAD","RCS_SIZE":"MEDIUM","COUNTRY_CODE":"UK","LAUNCH_DATE":"2020-03-21","SITE":"TTMTR","DECAY_DATE":null,"FILE":"2787455","GP_ID":"157790614","TLE_LINE0":"0 ONEWEB-0027","TLE_LINE1":"1 45432U 20020J   20200.91668981 -.00044501 +00000-0 -46410-2 0  9997","TLE_LINE2":"2 45432 087.5647 100.1993 0024716 222.8991 058.4475 14.89884993001741"},{"CCSDS_OMM_VERS":"2.0","COMMENT":"GENERATED VIA SPACE-TRACK.ORG API","CREATION_DATE":"2020-07-19T18:46:12","ORIGINATOR":"18 SPCS","OBJECT_NAME":"ONEWEB-0027","OBJECT_ID":"2020-020J","CENTER_NAME":"EARTH","REF_FRAME":"TEME","TIME_SYSTEM":"UTC","MEAN_ELEMENT_THEORY":"SGP4","EPOCH":"2020-07-19T14:00:01.000224","MEAN_MOTION":"14.89832321","ECCENTRICITY":"0.00247690","INCLINATION":"87.5647","RA_OF_ASC_NODE":"99.9945","ARG_OF_PERICENTER":"219.9917","MEAN_ANOMALY":"34.5835","EPHEMERIS_TYPE":"0","CLASSIFICATION_TYPE":"U","NORAD_CAT_ID":"45432","ELEMENT_SET_NO":"999","REV_AT_EPOCH":"178","BSTAR":"0.00692020000000","MEAN_MOTION_DOT":"0.00067389","MEAN_MOTION_DDOT":"0.0000000000000","SEMIMAJOR_AXIS":"6976.596","PERIOD":"96.655","APOAPSIS":"615.741","PERIAPSIS":"581.180","OBJECT_TYPE":"PAYLOAD","RCS_SIZE":"MEDIUM","COUNTRY_CODE":"UK","LAUNCH_DATE":"2020-03-21","SITE":"TTMTR","DECAY_DATE":null,"FILE":"2787838","GP_ID":"157818529","TLE_LINE0":"0 ONEWEB-0027","TLE_LINE1":"1 45432U 20020J   20201.58334491 +.00067389 +00000-0 +69202-2 0  9998","TLE_LINE2":"2 45432 087.5647 099.9945 0024769 219.9917 034.5835 14.89832321001783"},{"CCSDS_OMM_VERS":"2.0","COMMENT":"GENERATED VIA SPACE-TRACK.ORG API","CREATION_DATE":"2020-07-19T22:26:10","ORIGINATOR":"18 SPCS","OBJECT_NAME":"ONEWEB-0027","OBJECT_ID":"2020-020J","CENTER_NAME":"EARTH","REF_FRAME":"TEME","TIME_SYSTEM":"UTC","MEAN_ELEMENT_THEORY":"SGP4","EPOCH":"2020-07-19T20:00:01.000224","MEAN_MOTION":"14.89900218","ECCENTRICITY":"0.00248650","INCLINATION":"87.5647","RA_OF_ASC_NODE":"99.9166","ARG_OF_PERICENTER":"219.2062","MEAN_ANOMALY":"295.3260","EPHEMERIS_TYPE":"0","CLASSIFICATION_TYPE":"U","NORAD_CAT_ID":"45432","ELEMENT_SET_NO":"999","REV_AT_EPOCH":"1807","BSTAR":"-0.00638120000000","MEAN_MOTION_DOT":"-0.00061083","MEAN_MOTION_DDOT":"0.0000000000000","SEMIMAJOR_AXIS":"6976.384","PERIOD":"96.650","APOAPSIS":"615.595","PERIAPSIS":"580.902","OBJECT_TYPE":"PAYLOAD","RCS_SIZE":"MEDIUM","COUNTRY_CODE":"UK","LAUNCH_DATE":"2020-03-21","SITE":"TTMTR","DECAY_DATE":null,"FILE":"2787906","GP_ID":"157842207","TLE_LINE0":"0 ONEWEB-0027","TLE_LINE1":"1 45432U 20020J   20201.83334491 -.00061083  00000-0 -63812-2 0  9994","TLE_LINE2":"2 45432  87.5647  99.9166 0024865 219.2062 295.3260 14.89900218 18079"},{"CCSDS_OMM_VERS":"2.0","COMMENT":"GENERATED VIA SPACE-TRACK.ORG API","CREATION_DATE":"2020-07-20T02:00:18","ORIGINATOR":"18 SPCS","OBJECT_NAME":"ONEWEB-0027","OBJECT_ID":"2020-020J","CENTER_NAME":"EARTH","REF_FRAME":"TEME","TIME_SYSTEM":"UTC","MEAN_ELEMENT_THEORY":"SGP4","EPOCH":"2020-07-19T22:00:00.999936","MEAN_MOTION":"14.89885864","ECCENTRICITY":"0.00248900","INCLINATION":"87.5647","RA_OF_ASC_NODE":"99.8904","ARG_OF_PERICENTER":"218.9690","MEAN_ANOMALY":"22.2310","EPHEMERIS_TYPE":"0","CLASSIFICATION_TYPE":"U","NORAD_CAT_ID":"45432","ELEMENT_SET_NO":"999","REV_AT_EPOCH":"175","BSTAR":"-0.00460420000000","MEAN_MOTION_DOT":"-0.00044155","MEAN_MOTION_DDOT":"0.0000000000000","SEMIMAJOR_AXIS":"6976.428","PERIOD":"96.651","APOAPSIS":"615.658","PERIAPSIS":"580.929","OBJECT_TYPE":"PAYLOAD","RCS_SIZE":"MEDIUM","COUNTRY_CODE":"UK","LAUNCH_DATE":"2020-03-21","SITE":"TTMTR","DECAY_DATE":null,"FILE":"2787997","GP_ID":"157863181","TLE_LINE0":"0 ONEWEB-0027","TLE_LINE1":"1 45432U 20020J   20201.91667824 -.00044155 +00000-0 -46042-2 0  9999","TLE_LINE2":"2 45432 087.5647 099.8904 0024890 218.9690 022.2310 14.89885864001758"}]